ONEWEB-0273             
1 48991U 21060AA  24033.91380511  .00000022  00000+0  23480-4 0  9994
2 48991  87.9040  40.9804 0002063  87.8872 272.2495 13.16593462125736
ONEWEB-0274             
1 48992U 21060AB  24033.93912632  .00000036  00000+0  60023-4 0  9991
2 48992  87.9051  40.9799 0002227 106.2074 253.9302 13.16593006125775
ONEWEB-0275             
1 48993U 21060AC  24033.92804380  .00000057  00000+0  11499-3 0  9996
2 48993  87.9043  40.9748 0002027  88.2288 271.9075 13.16592170125706
ONEWEB-0276             
1 48994U 21060AD  24033.58131216 -.00000072  00000+0 -22128-3 0  9990
2 48994  87.9043  41.0395 0002176  83.4387 276.6991 13.16593787125679
ONEWEB-0277             
1 48995U 21060AE  24033.51798486  .00000050  00000+0  97574-4 0  9994
2 48995  87.9040  41.0907 0002425  86.6780 273.4628 13.16593530125651
ONEWEB-0278             
1 48996U 21060AF  24033.58447773 -.00000035  00000+0 -12433-3 0  9997
2 48996  87.9043  41.0359 0001570  81.3740 278.7569 13.16594812125795
ONEWEB-0279             
1 48997U 21060AG  24033.51640162  .00000011  00000+0 -37997-5 0  9995
2 48997  87.9042  41.0475 0001852  90.2823 269.8521 13.16593192125719
ONEWEB-0280             
1 48998U 21060AH  24033.91063930 -.00001036  00000+0 -27429-2 0  9997
2 48998  87.9047  40.9676 0002426  89.6587 270.4821 13.16599698125700
